{
  "type": "FeatureCollection",
  "features": [
    {
      "type": "Feature",
      "properties": {
        "norad_id": 31307,
        "name": "GALAXY 17 (G-17)",
        "group": "intelsat",
        "lat": -0.9007122538454047,
        "lon": 60.41336299721583,
        "alt_km": 35812.382172886515,
        "timestamp": "2025-12-03T04:52:29.308991+00:00",
        "meta_object_name": "GALAXY 17 (G-17)",
        "meta_object_id": "2007-016B",
        "meta_epoch": "2025-12-02T15:05:37.874112",
        "meta_mean_motion": 1.00270499,
        "meta_eccentricity": 0.0006087,
        "meta_inclination": 2.4723,
        "meta_ra_of_asc_node": 82.402,
        "meta_arg_of_pericenter": 155.8824,
        "meta_mean_anomaly": 334.859,
        "meta_ephemeris_type": 0,
        "meta_classification_type": "U",
        "meta_norad_cat_id": 31307,
        "meta_element_set_no": 999,
        "meta_rev_at_epoch": 6783,
        "meta_bstar": 0,
        "meta_mean_motion_dot": -1.86e-06,
        "meta_mean_motion_ddot": 0,
        "tle_line1": "1 31307U 07016B   25336.62891058 -.00000186  00000+0  00000+0 0  9990",
        "tle_line2": "2 31307   2.4723  82.4020 0006087 155.8824 334.8590  1.00270499 67832"
      },
      "geometry": {
        "type": "Point",
        "coordinates": [
          60.41336299721583,
          -0.9007122538454047
        ]
      }
    },
    {
      "type": "Feature",
      "properties": {
        "norad_id": 31862,
        "name": "DIRECTV 10",
        "group": "intelsat",
        "lat": -0.0068734161628713,
        "lon": 42.59781589966343,
        "alt_km": 35787.507455108585,
        "timestamp": "2025-12-03T04:52:29.309003+00:00",
        "meta_object_name": "DIRECTV 10",
        "meta_object_id": "2007-032A",
        "meta_epoch": "2025-12-02T15:00:23.376384",
        "meta_mean_motion": 1.00271759,
        "meta_eccentricity": 3.84e-05,
        "meta_inclination": 0.0177,
        "meta_ra_of_asc_node": 140.4771,
        "meta_arg_of_pericenter": 52.4818,
        "meta_mean_anomaly": 1.0731,
        "meta_ephemeris_type": 0,
        "meta_classification_type": "U",
        "meta_norad_cat_id": 31862,
        "meta_element_set_no": 999,
        "meta_rev_at_epoch": 4362,
        "meta_bstar": 0,
        "meta_mean_motion_dot": -8.3e-07,
        "meta_mean_motion_ddot": 0,
        "tle_line1": "1 31862U 07032A   25336.62527056 -.00000083  00000+0  00000+0 0  9994",
        "tle_line2": "2 31862   0.0177 140.4771 0000384  52.4818   1.0731  1.00271759 43623"
      },
      "geometry": {
        "type": "Point",
        "coordinates": [
          42.59781589966343,
          -0.0068734161628713
        ]
      }
    },
    {
      "type": "Feature",
      "properties": {
        "norad_id": 32253,
        "name": "INTELSAT 11 (IS-11)",
        "group": "intelsat",
        "lat": -1.4054254581340544,
        "lon": 53.13688487250454,
        "alt_km": 36172.148452354646,
        "timestamp": "2025-12-03T04:52:29.309015+00:00",
        "meta_object_name": "INTELSAT 11 (IS-11)",
        "meta_object_id": "2007-044B",
        "meta_epoch": "2025-12-02T13:21:34.968672",
        "meta_mean_motion": 0.99047445,
        "meta_eccentricity": 0.00092508,
        "meta_inclination": 3.0514,
        "meta_ra_of_asc_node": 81.09,
        "meta_arg_of_pericenter": 160.5254,
        "meta_mean_anomaly": 300.9812,
        "meta_ephemeris_type": 0,
        "meta_classification_type": "U",
        "meta_norad_cat_id": 32253,
        "meta_element_set_no": 999,
        "meta_rev_at_epoch": 6650,
        "meta_bstar": 0,
        "meta_mean_motion_dot": -8e-08,
        "meta_mean_motion_ddot": 0,
        "tle_line1": "1 32253U 07044B   25336.55665473 -.00000008  00000+0  00000+0 0  9997",
        "tle_line2": "2 32253   3.0514  81.0900 0009250 160.5254 300.9812  0.99047445 66509"
      },
      "geometry": {
        "type": "Point",
        "coordinates": [
          53.13688487250454,
          -1.4054254581340544
        ]
      }
    },
    {
      "type": "Feature",
      "properties": {
        "norad_id": 32388,
        "name": "HORIZONS-2",
        "group": "intelsat",
        "lat": -0.3912199234684617,
        "lon": 71.62726080770129,
        "alt_km": 35806.417072847566,
        "timestamp": "2025-12-03T04:52:29.309027+00:00",
        "meta_object_name": "HORIZONS-2",
        "meta_object_id": "2007-063B",
        "meta_epoch": "2025-12-02T10:28:21.662976",
        "meta_mean_motion": 1.00272433,
        "meta_eccentricity": 0.00049088,
        "meta_inclination": 2.0925,
        "meta_ra_of_asc_node": 83.0734,
        "meta_arg_of_pericenter": 179.8675,
        "meta_mean_anomaly": 251.9029,
        "meta_ephemeris_type": 0,
        "meta_classification_type": "U",
        "meta_norad_cat_id": 32388,
        "meta_element_set_no": 999,
        "meta_rev_at_epoch": 6584,
        "meta_bstar": 0,
        "meta_mean_motion_dot": -2.33e-06,
        "meta_mean_motion_ddot": 0,
        "tle_line1": "1 32388U 07063B   25336.43636184 -.00000233  00000+0  00000+0 0  9991",
        "tle_line2": "2 32388   2.0925  83.0734 0004908 179.8675 251.9029  1.00272433 65846"
      },
      "geometry": {
        "type": "Point",
        "coordinates": [
          71.62726080770129,
          -0.3912199234684617
        ]
      }
    },
    {
      "type": "Feature",
      "properties": {
        "norad_id": 32729,
        "name": "DIRECTV 11",
        "group": "intelsat",
        "lat": 0.00592101579673027,
        "lon": 46.19984834985283,
        "alt_km": 35787.61257491518,
        "timestamp": "2025-12-03T04:52:29.309039+00:00",
        "meta_object_name": "DIRECTV 11",
        "meta_object_id": "2008-013A",
        "meta_epoch": "2025-12-02T10:08:34.465632",
        "meta_mean_motion": 1.0027113,
        "meta_eccentricity": 4.09e-05,
        "meta_inclination": 0.0114,
        "meta_ra_of_asc_node": 215.6397,
        "meta_arg_of_pericenter": 330.8354,
        "meta_mean_anomaly": 298.008,
        "meta_ephemeris_type": 0,
        "meta_classification_type": "U",
        "meta_norad_cat_id": 32729,
        "meta_element_set_no": 999,
        "meta_rev_at_epoch": 4362,
        "meta_bstar": 0,
        "meta_mean_motion_dot": -1.05e-06,
        "meta_mean_motion_ddot": 0,
        "tle_line1": "1 32729U 08013A   25336.42262113 -.00000105  00000+0  00000+0 0  9990",
        "tle_line2": "2 32729   0.0114 215.6397 0000409 330.8354 298.0080  1.00271130 43620"
      },
      "geometry": {
        "type": "Point",
        "coordinates": [
          46.19984834985283,
          0.00592101579673027
        ]
      }
    },
    {
      "type": "Feature",
      "properties": {
        "norad_id": 32951,
        "name": "GALAXY 18 (G-18)",
        "group": "intelsat",
        "lat": 0.030888419001906125,
        "lon": 22.400686720216655,
        "alt_km": 35794.55018444771,
        "timestamp": "2025-12-03T04:52:29.309050+00:00",
        "meta_object_name": "GALAXY 18 (G-18)",
        "meta_object_id": "2008-024A",
        "meta_epoch": "2025-12-02T16:37:27.594336",
        "meta_mean_motion": 1.00272815,
        "meta_eccentricity": 0.0003397,
        "meta_inclination": 0.0216,
        "meta_ra_of_asc_node": 348.532,
        "meta_arg_of_pericenter": 266.2767,
        "meta_mean_anomaly": 303.3251,
        "meta_ephemeris_type": 0,
        "meta_classification_type": "U",
        "meta_norad_cat_id": 32951,
        "meta_element_set_no": 999,
        "meta_rev_at_epoch": 4388,
        "meta_bstar": 0,
        "meta_mean_motion_dot": 0,
        "meta_mean_motion_ddot": 0,
        "tle_line1": "1 32951U 08024A   25336.69268049  .00000000  00000+0  00000+0 0  9995",
        "tle_line2": "2 32951   0.0216 348.5320 0003397 266.2767 303.3251  1.00272815 43880"
      },
      "geometry": {
        "type": "Point",
        "coordinates": [
          22.400686720216655,
          0.030888419001906125
        ]
      }
    },
    {
      "type": "Feature",
      "properties": {
        "norad_id": 33153,
        "name": "INTELSAT 25 (IS-25)",
        "group": "intelsat",
        "lat": 1.1486985240490608,
        "lon": 113.84946964342129,
        "alt_km": 35804.46555941994,
        "timestamp": "2025-12-03T04:52:29.309062+00:00",
        "meta_object_name": "INTELSAT 25 (IS-25)",
        "meta_object_id": "2008-034A",
        "meta_epoch": "2025-12-02T17:03:32.593824",
        "meta_mean_motion": 1.00271606,
        "meta_eccentricity": 0.0005301,
        "meta_inclination": 2.1997,
        "meta_ra_of_asc_node": 82.7616,
        "meta_arg_of_pericenter": 176.4276,
        "meta_mean_anomaly": 37.016,
        "meta_ephemeris_type": 0,
        "meta_classification_type": "U",
        "meta_norad_cat_id": 33153,
        "meta_element_set_no": 999,
        "meta_rev_at_epoch": 6372,
        "meta_bstar": 0,
        "meta_mean_motion_dot": -2.04e-06,
        "meta_mean_motion_ddot": 0,
        "tle_line1": "1 33153U 08034A   25336.71079391 -.00000204  00000+0  00000+0 0  9991",
        "tle_line2": "2 33153   2.1997  82.7616 0005301 176.4276  37.0160  1.00271606 63725"
      },
      "geometry": {
        "type": "Point",
        "coordinates": [
          113.84946964342129,
          1.1486985240490608
        ]
      }
    }
  ]
}